*******************************************************************************
JPL/HORIZONS                43 Ariadne (A857 GA)           2020-Jun-20 07:59:28
Rec #:      43 (+COV) Soln.date: 2020-May-20_00:56:58   # obs: 2773 (1864-2020)
 
IAU76/J2000 helio. ecliptic osc. elements (au, days, deg., period=Julian yrs):
 
  EPOCH=  2455303.5 ! 2010-Apr-17.00 (TDB)         Residual RMS= .4113
   EC= .1677176021735362   QR= 1.834014514561312   TP= 2455752.2820607242
   OM= 264.9253373939287   W=  15.86035699680575   IN= 3.466797691322753
   A= 2.203596422741739    MA= 224.7798310234835   ADIST= 2.573178330922165
   PER= 3.27119            N= .301304747           ANGMOM= .025173972
   DAN= 1.8441             DDN= 2.55359            L= 280.7581264
   B= .9469192             MOID= .81726003         TP= 2011-Jul-09.7820607242
 
Asteroid physical parameters (km, seconds, rotational period in hours):
   GM= n.a.                RAD= 35.67              ROTPER= 5.76218
   H= 7.9                  G= .110                 B-V= .863
                           ALBEDO= .234            STYP= Sk
 
ASTEROID comments: 
1: soln ref.= JPL#114, OCC=0
2: source=ORB
*******************************************************************************
 
 
*******************************************************************************
Ephemeris / WWW_USER Sat Jun 20 07:59:28 2020 Pasadena, USA      / Horizons
*******************************************************************************
Target body name: 43 Ariadne (A857 GA)            {source: JPL#114}
Center body name: Solar System Barycenter (0)     {source: DE431}
Center-site name: BODY CENTER
*******************************************************************************
Start time      : A.D. 1969-Jun-28 00:00:00.0000 TDB
Stop  time      : A.D. 2071-May-04 00:00:00.0000 TDB
Step-size       : 7200 minutes
*******************************************************************************
Center geodetic : 0.00000000,0.00000000,0.0000000 {E-lon(deg),Lat(deg),Alt(km)}
Center cylindric: 0.00000000,0.00000000,0.0000000 {E-lon(deg),Dxy(km),Dz(km)}
Center radii    : (undefined)                                                  
Small perturbers: Yes                             {source: SB431-N16}
Output units    : AU-D
Output type     : GEOMETRIC cartesian states
Output format   : 2 (position and velocity)
Reference frame : Ecliptic of J2000.0
*******************************************************************************
Initial IAU76/J2000 heliocentric ecliptic osculating elements (au, days, deg.):
  EPOCH=  2455303.5 ! 2010-Apr-17.00 (TDB)         Residual RMS= .4113         
   EC= .1677176021735362   QR= 1.834014514561312   TP= 2455752.2820607242      
   OM= 264.9253373939287   W=  15.86035699680575   IN= 3.466797691322753       
  Equivalent ICRF heliocentric equatorial cartesian coordinates (au, au/d):
   X=-1.723389734619533E+00  Y= 1.693080070160860E+00  Z= 6.102011179493654E-01
  VX=-6.527070946718463E-03 VY=-6.996158661433684E-03 VZ=-3.417068191129978E-03
Asteroid physical parameters (km, seconds, rotational period in hours):        
   GM= n.a.                RAD= 35.67              ROTPER= 5.76218             
   H= 7.9                  G= .110                 B-V= .863                   
                           ALBEDO= .234            STYP= Sk                    
*******************************************************************************
            JDTDB,            Calendar Date (TDB),        delta-T,                      X,                      Y,                      Z,                     VX,                     VY,                     VZ,
******************************************************************************************************************************************************************************************************************
$$SOE
2461400.500000000, A.D. 2026-Dec-26 00:00:00.0000,      69.183747, -2.229399563464811E+00,  6.073771845817661E-01, -1.377844194679499E-01, -1.171552443223273E-03, -1.094896692986397E-02, -9.849077101414629E-06,
2461405.500000000, A.D. 2026-Dec-31 00:00:00.0000,      69.183888, -2.234590203763607E+00,  5.524549278389354E-01, -1.377924002855120E-01, -9.040861483183834E-04, -1.101897278734348E-02,  6.688569444894780E-06,
2461410.500000000, A.D. 2027-Jan-05 00:00:00.0000,      69.184033, -2.238434304236498E+00,  4.971972307736961E-01, -1.377172196807478E-01, -6.329476361269509E-04, -1.108311408065456E-02,  2.341465828702628E-05,
2461415.500000000, A.D. 2027-Jan-10 00:00:00.0000,      69.184177, -2.240913675986834E+00,  4.416338539826825E-01, -1.375579482852206E-01, -3.582068642247635E-04, -1.114121508172931E-02,  4.032398342050481E-05,
2461420.500000000, A.D. 2027-Jan-15 00:00:00.0000,      69.184320, -2.242010496471885E+00,  3.857954458913581E-01, -1.373136838125927E-01, -7.994048528743629E-05, -1.119309640342063E-02,  5.741091394111544E-05,
2461425.500000000, A.D. 2027-Jan-20 00:00:00.0000,      69.184459, -2.241707344020009E+00,  3.297135607849617E-01, -1.369835532445355E-01,  2.017677339786158E-04, -1.123857510931242E-02,  7.466936940930832E-05,
2461430.500000000, A.D. 2027-Jan-25 00:00:00.0000,      69.184593, -2.239987234476033E+00,  2.734206762275823E-01, -1.365667151408123E-01,  4.868264805432215E-04, -1.127746484914054E-02,  9.209279482555498E-05,
2461435.500000000, A.D. 2027-Jan-30 00:00:00.0000,      69.184723, -2.236833660041115E+00,  2.169502097340221E-01, -1.360623620754801E-01,  7.751364495500902E-04, -1.130957602273078E-02,  1.096741351914137E-04,
2461440.500000000, A.D. 2027-Feb-04 00:00:00.0000,      69.184850, -2.232230630373318E+00,  1.603365345449771E-01, -1.354697232016016E-01,  1.066589885509873E-03, -1.133471597515754E-02,  1.274058095138275E-04,
2461445.500000000, A.D. 2027-Feb-09 00:00:00.0000,      69.184971, -2.226162716015690E+00,  1.036149943433672E-01, -1.347880669477413E-01,  1.361070110105082E-03, -1.135268922549870E-02,  1.452796840527035E-04,
2461450.500000000, A.D. 2027-Feb-14 00:00:00.0000,      69.185083, -2.218615094218674E+00,  4.682191673843220E-02, -1.340167038505073E-01,  1.658451036681753E-03, -1.136329773129944E-02,  1.632870446315872E-04,
2461455.500000000, A.D. 2027-Feb-19 00:00:00.0000,      69.185186, -2.209573597222224E+00, -1.000537466546130E-02, -1.331549895280040E-01,  1.958596672113178E-03, -1.136634119048242E-02,  1.814185679845954E-04,
2461460.500000000, A.D. 2027-Feb-24 00:00:00.0000,      69.185279, -2.199024763055432E+00, -6.682854980651703E-02, -1.322023277983258E-01,  2.261360608511466E-03, -1.136161738236307E-02,  1.996642924810350E-04,
2461465.500000000, A.D. 2027-Mar-01 00:00:00.0000,      69.185363, -2.186955888894854E+00, -1.236082635111531E-01, -1.311581739447885E-01,  2.566585508712497E-03, -1.134892255036084E-02,  2.180135887950295E-04,
2461470.500000000, A.D. 2027-Mar-06 00:00:00.0000,      69.185438, -2.173355087003516E+00, -1.803041488652291E-01, -1.300220381271374E-01,  2.874102588964049E-03, -1.132805183020900E-02,  2.364551308683247E-04,
2461475.500000000, A.D. 2027-Mar-11 00:00:00.0000,      69.185503, -2.158211343258940E+00, -2.368748128482657E-01, -1.287934889371802E-01,  3.183731100919628E-03, -1.129879972750808E-02,  2.549768671631510E-04,
2461480.500000000, A.D. 2027-Mar-16 00:00:00.0000,      69.185555, -2.141514578268898E+00, -2.932778344848704E-01, -1.274721570974954E-01,  3.495277814984645E-03, -1.126096064743956E-02,  2.735659921981700E-04,
2461485.500000000, A.D. 2027-Mar-21 00:00:00.0000,      69.185595, -2.123255711060359E+00, -3.494697657796535E-01, -1.260577393012694E-01,  3.808536508371275E-03, -1.121432947880957E-02,  2.922089186238570E-04,
2461490.500000000, A.D. 2027-Mar-26 00:00:00.0000,      69.185621, -2.103426725307064E+00, -4.054061357130255E-01, -1.245500021895513E-01,  4.123287462411755E-03, -1.115870223478369E-02,  3.108912502509504E-04,
2461495.500000000, A.D. 2027-Mar-31 00:00:00.0000,      69.185637, -2.082020738036877E+00, -4.610414575879037E-01, -1.229487864601278E-01,  4.439296974207056E-03, -1.109387675296848E-02,  3.295977564376654E-04,
2461500.500000000, A.D. 2027-Apr-05 00:00:00.0000,      69.185642, -2.059032070733967E+00, -5.163292400308450E-01, -1.212540111003065E-01,  4.756316887949634E-03, -1.101965345754597E-02,  3.483123481961283E-04,
2461505.500000000, A.D. 2027-Apr-10 00:00:00.0000,      69.185635, -2.034456322723670E+00, -5.712220019643744E-01, -1.194656777341797E-01,  5.074084151480159E-03, -1.093583618602188E-02,  3.670180563468905E-04,
2461510.500000000, A.D. 2027-Apr-15 00:00:00.0000,      69.185615, -2.008290446699379E+00, -6.256712918793604E-01, -1.175838750733402E-01,  5.392320403912848E-03, -1.084223308283851E-02,  3.856970120345191E-04,
2461515.500000000, A.D. 2027-Apr-20 00:00:00.0000,      69.185582, -1.980532826220943E+00, -6.796277117464626E-01, -1.156087834584830E-01,  5.710731600457587E-03, -1.073865756163890E-02,  4.043304299087676E-04,
2461520.500000000, A.D. 2027-Apr-25 00:00:00.0000,      69.185537, -1.951183354982504E+00, -7.330409459129815E-01, -1.135406794777770E-01,  6.029007680949678E-03, -1.062492933727634E-02,  4.228985942935569E-04,
2461525.500000000, A.D. 2027-Apr-30 00:00:00.0000,      69.185482, -1.920243517613687E+00, -7.858597953348158E-01, -1.113799406461364E-01,  6.346822289236618E-03, -1.050087552781778E-02,  4.413808487272284E-04,
2461530.500000000, A.D. 2027-May-05 00:00:00.0000,      69.185417, -1.887716471740332E+00, -8.380322174923641E-01, -1.091270501274265E-01,  6.663832551365816E-03, -1.036633182595817E-02,  4.597555893313107E-04,
2461535.500000000, A.D. 2027-May-10 00:00:00.0000,      69.185343, -1.853607130989333E+00, -8.895053723345466E-01, -1.067826014792200E-01,  6.979678921234893E-03, -1.022114373861000E-02,  4.780002625016311E-04,
